NORAD_CAT_ID,OBJECT_NAME,OBJECT_TYPE,EPOCH,MEAN_MOTION,ECCENTRICITY,INCLINATION,RA_OF_ASC_NODE,ARG_OF_PERICENTER,MEAN_ANOMALY,BSTAR,MEAN_MOTION_DOT,MEAN_MOTION_DDOT,TLE_LINE0,TLE_LINE1,TLE_LINE2,SEMIMAJOR_AXIS,PERIOD,APOGEE,PERIGEE,DECAYED
56785.0,STARLINK-5931,PAYLOAD,2023-06-21 23:12:11,15.69931284,0.0003713,70.001,352.3162,270.5363,89.5407,0.00025826,0.00030967,0.0,0 STARLINK-5931,1 56785U 23078U   23172.96679956  .00030967  00000-0  25826-3 0  9994,2 56785  70.0010 352.3162 0003713 270.5363  89.5407 15.69931284  3715,6737.231,91.724,361.597,356.594,0.0
56785.0,STARLINK-5931,PAYLOAD,2023-06-22 05:19:11,15.69926261,0.0003806,70.0008,351.5997,270.3801,89.6959,0.00025152,0.00030144,0.0,0 STARLINK-5931,1 56785U 23078U   23173.22166530  .00030144  00000-0  25152-3 0  9992,2 56785  70.0008 351.5997 0003806 270.3801  89.6959 15.69926261  3753,6737.245,91.724,361.674,356.546,0.0
56785.0,STARLINK-5931,PAYLOAD,2023-06-22 22:08:28,15.69940947,0.0003719,70.0009,349.6299,270.8529,89.2241,0.00016824,0.0002008,0.0,0 STARLINK-5931,1 56785U 23078U   23173.92254639  .00020080  00000-0  16824-3 0  9991,2 56785  70.0009 349.6299 0003719 270.8529  89.2241 15.69940947  3861,6737.203,91.723,361.574,356.562,0.0
56785.0,STARLINK-5931,PAYLOAD,2023-06-23 05:47:13,15.69934177,0.0003435,70.0012,348.7345,255.4624,104.6191,7.2034e-05,8.461e-05,0.0,0 STARLINK-5931,1 56785U 23078U   23174.24112940  .00008461  00000-0  72034-4 0  9990,2 56785  70.0012 348.7345 0003435 255.4624 104.6191 15.69934177  3917,6737.222,91.724,361.402,356.773,0.0
56785.0,STARLINK-5931,PAYLOAD,2023-06-23 14:57:44,15.69920614,0.0003757,70.0009,347.6587,262.4072,97.6697,0.00012496,0.00014838,0.0,0 STARLINK-5931,1 56785U 23078U   23174.62343394  .00014838  00000-0  12496-3 0  9991,2 56785  70.0009 347.6587 0003757 262.4072  97.6697 15.69920614  3970,6737.261,91.724,361.657,356.595,0.0
56785.0,STARLINK-5931,PAYLOAD,2023-06-23 21:04:44,15.69940312,0.0003815,70.0011,346.9425,268.0433,92.0326,0.00013912,0.00016561,0.0,0 STARLINK-5931,1 56785U 23078U   23174.87829846  .00016561  00000-0  13912-3 0  9998,2 56785  70.0011 346.9425 0003815 268.0433  92.0326 15.69940312  4015,6737.205,91.723,361.64,356.5,0.0
56785.0,STARLINK-5931,PAYLOAD,2023-06-24 04:43:30,15.69930737,0.0003798,70.001,346.0462,268.129,91.9471,0.00014795,0.0001762,0.0,0 STARLINK-5931,1 56785U 23078U   23175.19688485  .00017620  00000-0  14795-3 0  9993,2 56785  70.0010 346.0462 0003798 268.1290  91.9471 15.69930737  4062,6737.232,91.724,361.656,356.538,0.0
56785.0,STARLINK-5931,PAYLOAD,2023-06-24 21:32:47,15.69946362,0.0003638,70.0002,344.0762,269.6096,90.4683,0.00024514,0.00029395,0.0,0 STARLINK-5931,1 56785U 23078U   23175.89776713  .00029395  00000-0  24514-3 0  9994,2 56785  70.0002 344.0762 0003638 269.6096  90.4683 15.69946362  4179,6737.187,91.723,361.503,356.601,0.0
56785.0,STARLINK-5931,PAYLOAD,2023-06-25 05:11:32,15.69946835,0.0003784,70.0,343.1807,268.2819,91.7944,0.0002532,0.00030374,0.0,0 STARLINK-5931,1 56785U 23078U   23176.21635093  .00030374  00000-0  25320-3 0  9991,2 56785  70.0000 343.1807 0003784 268.2819  91.7944 15.69946835  4222,6737.186,91.723,361.6,356.502,0.0
56785.0,STARLINK-5931,PAYLOAD,2023-06-25 14:22:03,15.69939082,0.0003736,70.0001,342.1052,266.6729,93.4039,0.00022193,0.00026575,0.0,0 STARLINK-5931,1 56785U 23078U   23176.59865067  .00026575  00000-0  22193-3 0  9991,2 56785  70.0001 342.1052 0003736 266.6729  93.4039 15.69939082  4289,6737.208,91.723,361.59,356.556,0.0
56785.0,STARLINK-5931,PAYLOAD,2023-06-25 20:29:03,15.69944263,0.0003756,69.9998,341.3888,271.2802,88.7963,0.0001928,0.00023054,0.0,0 STARLINK-5931,1 56785U 23078U   23176.85351647  .00023054  00000-0  19280-3 0  9996,2 56785  69.9998 341.3888 0003756 271.2802  88.7963 15.69944263  4320,6737.193,91.723,361.589,356.528,0.0
56785.0,STARLINK-5931,PAYLOAD,2023-06-26 04:07:49,15.69926358,0.00034,69.9997,340.4931,272.5979,87.4828,0.00013478,0.00016026,0.0,0 STARLINK-5931,1 56785U 23078U   23177.17210496  .00016026  00000-0  13478-3 0  9992,2 56785  69.9997 340.4931 0003400 272.5979  87.4828 15.69926358  4379,6737.245,91.724,361.4,356.819,0.0
56785.0,STARLINK-5931,PAYLOAD,2023-06-26 14:50:05,15.69926812,0.0003964,69.9995,339.2398,269.1864,90.8877,5.7857e-05,6.751e-05,0.0,0 STARLINK-5931,1 56785U 23078U   23177.61811993  .00006751  00000-0  57857-4 0  9994,2 56785  69.9995 339.2398 0003964 269.1864  90.8877 15.69926812  4445,6737.243,91.724,361.779,356.438,0.0
56785.0,STARLINK-5931,PAYLOAD,2023-06-27 18:21:37,15.69941339,0.0003603,69.9987,336.0134,267.5091,92.5693,8.9915e-05,0.0001062,0.0,0 STARLINK-5931,1 56785U 23078U   23178.76501895  .00010620  00000-0  89915-4 0  9998,2 56785  69.9987 336.0134 0003603 267.5091  92.5693 15.69941339  4629,6737.202,91.723,361.494,356.639,0.0
56785.0,STARLINK-5931,PAYLOAD,2023-06-28 03:32:08,15.69924734,0.0003472,69.9978,334.9388,265.3706,94.7093,1.856e-05,2.019e-05,0.0,0 STARLINK-5931,1 56785U 23078U   23179.14732290  .00002019  00000-0  18560-4 0  9997,2 56785  69.9978 334.9388 0003472 265.3706  94.7093 15.69924734  4684,6737.249,91.724,361.454,356.775,0.0
56785.0,STARLINK-5931,PAYLOAD,2023-06-29 19:17:41,15.69935887,0.0003403,69.9982,330.2796,271.8735,88.2071,3.3525e-05,3.822e-05,0.0,0 STARLINK-5931,1 56785U 23078U   23180.80395337  .00003822  00000-0  33525-4 0  9990,2 56785  69.9982 330.2796 0003403 271.8735  88.2071 15.69935887  4943,6737.217,91.723,361.375,356.79,0.0
56785.0,STARLINK-5931,PAYLOAD,2023-06-30 16:42:13,15.69919501,0.0003894,69.999,327.7719,271.5034,88.5715,-1.3205e-05,-1.8e-05,0.0,0 STARLINK-5931,1 56785U 23078U   23181.69599013 -.00001800  00000-0 -13205-4 0  9994,2 56785  69.9990 327.7719 0003894 271.5034  88.5715 15.69919501  5080,6737.264,91.724,361.753,356.506,0.0
56785.0,STARLINK-5931,PAYLOAD,2023-07-01 18:42:00,15.69931172,0.0003839,69.9979,324.727,273.435,86.6407,4.2801e-05,4.938e-05,0.0,0 STARLINK-5931,1 56785U 23078U   23182.77917433  .00004938  00000-0  42801-4 0  9991,2 56785  69.9979 324.7270 0003839 273.4350  86.6407 15.69931172  5251,6737.231,91.724,361.682,356.509,0.0
56785.0,STARLINK-5931,PAYLOAD,2023-07-02 09:59:32,15.69927009,0.0003268,69.9998,322.9354,263.3627,96.7196,3.1877e-05,3.622e-05,0.0,0 STARLINK-5931,1 56785U 23078U   23183.41634366  .00003622  00000-0  31877-4 0  9994,2 56785  69.9998 322.9354 0003268 263.3627  96.7196 15.69927009  5358,6737.243,91.724,361.31,356.906,0.0
56785.0,STARLINK-5931,PAYLOAD,2023-07-03 16:34:34,15.69928392,0.0003376,69.9992,319.3534,268.3063,91.7746,2.2777e-05,2.527e-05,0.0,0 STARLINK-5931,1 56785U 23078U   23184.69067967  .00002527  00000-0  22777-4 0  9994,2 56785  69.9992 319.3534 0003376 268.3063  91.7746 15.69928392  5555,6737.239,91.724,361.378,356.829,0.0
56785.0,STARLINK-5931,PAYLOAD,2023-07-04 17:02:36,15.69933054,0.000388,69.9984,316.4855,269.0172,91.0579,3.1054e-05,3.524e-05,0.0,0 STARLINK-5931,1 56785U 23078U   23185.71014263  .00003524  00000-0  31054-4 0  9995,2 56785  69.9984 316.4855 0003880 269.0172  91.0579 15.69933054  5715,6737.226,91.724,361.705,356.476,0.0
56785.0,STARLINK-5931,PAYLOAD,2023-07-04 18:34:21,15.69928353,0.0003664,69.9986,316.3067,269.5615,90.5161,2.1454e-05,2.368e-05,0.0,0 STARLINK-5931,1 56785U 23078U   23185.77386232  .00002368  00000-0  21454-4 0  9997,2 56785  69.9986 316.3067 0003664 269.5615  90.5161 15.69928353  5726,6737.239,91.724,361.573,356.635,0.0
56785.0,STARLINK-5931,PAYLOAD,2023-07-05 11:23:38,15.69923652,0.0003693,69.9975,314.3328,270.9282,89.1491,1.0945e-05,1.103e-05,0.0,0 STARLINK-5931,1 56785U 23078U   23186.47475015  .00001103  00000-0  10945-4 0  9992,2 56785  69.9975 314.3328 0003693 270.9282  89.1491 15.69923652  5839,6737.252,91.724,361.605,356.629,0.0
56785.0,STARLINK-5931,PAYLOAD,2023-07-06 14:55:10,15.69935215,0.0003792,69.9988,311.1105,272.1317,87.9444,3.563e-05,4.076e-05,0.0,0 STARLINK-5931,1 56785U 23078U   23187.62164445  .00004076  00000-0  35630-4 0  9992,2 56785  69.9988 311.1105 0003792 272.1317  87.9444 15.69935215  6017,6737.219,91.724,361.639,356.53,0.0
56785.0,STARLINK-5931,PAYLOAD,2023-07-07 01:37:26,15.69917828,0.0003391,69.9984,309.8557,276.1881,83.8928,1.8815e-05,2.05e-05,0.0,0 STARLINK-5931,1 56785U 23078U   23188.06767123  .00002050  00000-0  18815-4 0  9999,2 56785  69.9984 309.8557 0003391 276.1881  83.8928 15.69917828  6082,6737.269,91.725,361.419,356.849,0.0
56785.0,STARLINK-5931,PAYLOAD,2023-07-08 17:22:59,15.6992774,0.0003922,69.9982,305.1972,272.6472,87.4275,2.4237e-05,2.703e-05,0.0,0 STARLINK-5931,1 56785U 23078U   23189.72430142  .00002703  00000-0  24237-4 0  9991,2 56785  69.9982 305.1972 0003922 272.6472  87.4275 15.69927740  6345,6737.241,91.724,361.748,356.463,0.0
56785.0,STARLINK-5931,PAYLOAD,2023-07-10 09:08:32,15.69924899,0.0003705,69.9974,300.5391,265.2329,94.8443,1.8822e-05,2.051e-05,0.0,0 STARLINK-5931,1 56785U 23078U   23191.38093611  .00002051  00000-0  18822-4 0  9991,2 56785  69.9974 300.5391 0003705 265.2329  94.8443 15.69924899  6608,6737.249,91.724,361.61,356.618,0.0
56785.0,STARLINK-5931,PAYLOAD,2023-07-11 09:36:34,15.69931193,0.0004116,69.9965,297.6734,272.1767,87.8957,9.3478e-06,9.11e-06,0.0,0 STARLINK-5931,1 56785U 23078U   23192.40039952  .00000911  00000-0  93478-5 0  9997,2 56785  69.9965 297.6734 0004116 272.1767  87.8957 15.69931193  6769,6737.231,91.724,361.869,356.323,0.0
56785.0,STARLINK-5931,PAYLOAD,2023-07-11 17:15:20,15.69926584,0.0003973,69.9968,296.7792,277.6999,82.3745,-1.3419e-06,-3.75e-06,0.0,0 STARLINK-5931,1 56785U 23078U   23192.71898546 -.00000375  00000-0 -13419-5 0  9996,2 56785  69.9968 296.7792 0003973 277.6999  82.3745 15.69926584  6812,6737.244,91.724,361.786,356.432,0.0
56785.0,STARLINK-5931,PAYLOAD,2023-07-13 15:07:54,15.69925374,0.0002913,69.9987,291.4053,268.1507,91.9355,2.9279e-06,1.4e-06,0.0,0 STARLINK-5931,1 56785U 23078U   23194.63049641  .00000140  00000-0  29279-5 0  9992,2 56785  69.9987 291.4053 0002913 268.1507  91.9355 15.69925374  7111,6737.248,91.724,361.075,357.15,0.0
